SatCatId,ObjectName,LaunchYear,OrbitalPeriod,LaunchMass,StatusCode,Inclination,Status,UcsData,OrbitClassEstimated,LaunchSiteCountry,Owner,UseType,Purpose,LaunchVehicleClass,TLE1,TLE2,MeanMotion,Eccentricity,OrbitClass
56128,STARLINK-6122,2023,95.84,290.0,+,43.0,Active,1,LEO,USA,USA,Commercial,Communications,Falcon,1 56128U 23046AN  24131.42405119  .00001439  00000+0  12154-3 0  9996,2 56128  43.0005 177.4697 0001065 270.8555  89.2165 15.02539870 61683,15.0253987,0.0001065,LEO
56129,STARLINK-6121,2023,95.84,290.0,+,43.0,Active,1,LEO,USA,USA,Commercial,Communications,Falcon,1 56129U 23046AP  24131.34529852  .00001418  00000+0  12001-3 0  9997,2 56129  43.0031 125.8425 0001029 272.9023  87.1702 15.02540814 62272,15.02540814,0.0001029,LEO
56130,STARLINK-6117,2023,95.84,290.0,+,43.0,Active,1,LEO,USA,USA,Commercial,Communications,Falcon,1 56130U 23046AQ  24131.47832243  .00002463  00000+0  19733-3 0  9994,2 56130  43.0005 177.0157 0001285 269.7809  90.2886 15.02540481 61699,15.02540481,0.0001285,LEO
56131,STARLINK-6120,2023,95.84,290.0,+,43.0,Active,1,LEO,USA,USA,Commercial,Communications,Falcon,1 56131U 23046AR  24131.53036863  .00002847  00000+0  22569-3 0  9993,2 56131  43.0016 176.5457 0001553 257.4020 102.6649 15.02541148 62244,15.02541148,0.0001553,LEO
56132,STARLINK-6071,2023,95.84,290.0,+,43.0,Active,1,LEO,USA,USA,Commercial,Communications,Falcon,1 56132U 23046AS  24131.40851649  .00001575  00000+0  13161-3 0  9992,2 56132  43.0006 177.3518 0001359 262.9230  97.1458 15.02534941 61685,15.02534941,0.0001359,LEO
56133,STARLINK-5566,2023,95.84,290.0,+,43.0,Active,1,LEO,USA,USA,Commercial,Communications,Falcon,1 56133U 23046AT  24131.46500946  .00000294  00000+0  36827-4 0  9992,2 56133  43.0012 176.9161 0001275 270.3400  89.7296 15.02532700 61690,15.025327,0.0001275,LEO
56134,STARLINK-5564,2023,95.84,290.0,+,43.0,Active,1,LEO,USA,USA,Commercial,Communications,Falcon,1 56134U 23046AU  24131.53813847  .00002390  00000+0  19191-3 0  9991,2 56134  43.0010 176.6033 0001286 276.8093  83.2603 15.02542835 62248,15.02542835,0.0001286,LEO
56136,STARLINK-5489,2023,95.84,290.0,+,43.0,Active,1,LEO,USA,USA,Commercial,Communications,Falcon,1 56136U 23046AW  24131.53370371  .00002036  00000+0  16578-3 0  9996,2 56136  43.0027 176.5726 0001284 271.2881  88.7815 15.02531143 61703,15.02531143,0.0001284,LEO
56137,STARLINK-5090,2023,95.84,290.0,+,43.0,Active,1,LEO,USA,USA,Commercial,Communications,Falcon,1 56137U 23046AX  24131.51150194  .00001988  00000+0  16216-3 0  9998,2 56137  43.0026 176.4025 0001220 275.5351  84.5352 15.02536513 61709,15.02536513,0.000122,LEO
56138,STARLINK-4774,2023,95.84,290.0,+,43.0,Active,1,LEO,USA,USA,Commercial,Communications,Falcon,1 56138U 23046AY  24131.46056838  .00000132  00000+0  24813-4 0  9996,2 56138  43.0027 176.8811 0001327 269.6743  90.3947 15.02535487 61697,15.02535487,0.0001327,LEO
56139,STARLINK-5378,2023,90.94,290.0,P,43.0,Active,1,LEO,USA,USA,Commercial,Communications,Falcon,1 56139U 23046AZ  24131.58334491  .01078272  00000+0  42608-2 0  9995,2 56139  42.9968 147.4584 0001649 272.2870 117.3982 15.83665054 62580,15.83665054,0.0001649,LEO
56140,STARLINK-5375,2023,95.84,290.0,+,43.0,Active,1,LEO,USA,USA,Commercial,Communications,Falcon,1 56140U 23046BA  24131.52483204 -.00002781  00000+0 -19096-3 0  9997,2 56140  43.0023 176.5016 0001356 269.0289  91.0398 15.02523614 62240,15.02523614,0.0001356,LEO
56141,STARLINK-5377,2023,95.84,290.0,+,43.0,Active,1,LEO,USA,USA,Commercial,Communications,Falcon,1 56141U 23046BB  24131.44391690  .00000845  00000+0  77622-4 0  9993,2 56141  43.0027 176.7559 0001203 291.1804  68.8910 15.02538490 61697,15.0253849,0.0001203,LEO
56142,STARLINK-5376,2023,95.84,290.0,+,43.0,Active,1,LEO,USA,USA,Commercial,Communications,Falcon,1 56142U 23046BC  24131.52149284  .00001188  00000+0  10297-3 0  9998,2 56142  43.0012 176.4782 0001225 268.1928  91.8774 15.02535108 61701,15.02535108,0.0001225,LEO
56143,STARLINK-5016,2023,95.84,290.0,+,43.0,Active,1,LEO,USA,USA,Commercial,Communications,Falcon,1 56143U 23046BD  24131.43837038 -.00001059  00000+0 -63374-4 0  9994,2 56143  43.0017 176.7130 0001454 268.3041  91.7634 15.02529376 61691,15.02529376,0.0001454,LEO
56144,STARLINK-5374,2023,95.84,290.0,+,43.0,Active,1,LEO,USA,USA,Commercial,Communications,Falcon,1 56144U 23046BE  24131.51815971 -.00006211  00000+0 -44503-3 0  9993,2 56144  43.0004 176.4496 0001544 254.1751 105.8921 15.02540510 61702,15.0254051,0.0001544,LEO
56146,STARLINK-5111,2023,95.84,290.0,+,43.0,Active,1,LEO,USA,USA,Commercial,Communications,Falcon,1 56146U 23046BG  24131.44058643 -.00000075  00000+0  95054-5 0  9992,2 56146  42.9993 176.7271 0001328 267.5158  92.5533 15.02535426 61691,15.02535426,0.0001328,LEO
56147,STARLINK-5140,2023,95.84,290.0,+,43.0,Active,1,LEO,USA,USA,Commercial,Communications,Falcon,1 56147U 23046BH  24131.41593484  .00001431  00000+0  12099-3 0  9999,2 56147  43.0035 138.3290 0001111 270.2981  89.7734 15.02539053 62132,15.02539053,0.0001111,LEO
56148,STARLINK-5089,2023,95.84,290.0,+,43.0,Active,1,LEO,USA,USA,Commercial,Communications,Falcon,1 56148U 23046BJ  24131.35278622  .00003714  00000+0  28983-3 0  9992,2 56148  43.0013 138.7179 0001030 275.5196  84.5529 15.02542303 62121,15.02542303,0.000103,LEO
56153,PIESAT A,2023,95.09,320.0,+,97.5,Active,1,LEO,PRC,China,Commercial,Earth Observation,Long March,1 56153U 23047A   24131.51155943  .00005463  00000+0  30200-3 0  9995,2 56153  97.5030 318.6317 0001579  98.9880 261.1530 15.14297198 61629,15.14297198,0.0001579,LEO
56154,PIESAT B,2023,95.09,270.0,+,97.5,Active,1,LEO,PRC,China,Commercial,Earth Observation,Long March,1 56154U 23047B   24131.57764045  .00008779  00000+0  48291-3 0  9993,2 56154  97.5001 318.6957 0001589 108.7915 251.3489 15.14298861 61631,15.14298861,0.0001589,LEO
56155,PIESAT C,2023,95.09,270.0,+,97.5,Active,1,LEO,PRC,China,Commercial,Earth Observation,Long March,1 56155U 23047C   24131.51156208  .00011559  00000+0  63445-3 0  9992,2 56155  97.5015 318.6333 0001751  85.7124 274.4308 15.14298250 61629,15.1429825,0.0001751,LEO
56156,PIESAT D,2023,95.09,270.0,+,97.5,Active,1,LEO,PRC,China,Commercial,Earth Observation,Long March,1 56156U 23047D   24131.57764146  .00003429  00000+0  19096-3 0  9995,2 56156  97.5018 318.6972 0001693  89.6388 270.5038 15.14293691 61634,15.14293691,0.0001693,LEO
56157,OBJECT A,2023,107.04,500.0,+,63.4,Active,1,LEO,PRC,China,Military,Earth Observation,Long March,1 56157U 23048A   24131.57051100 -.00000041  00000+0  83201-4 0  9994,2 56157  63.4025 269.8246 0041651 349.4481  10.5667 13.45314067 54663,13.45314067,0.0041651,LEO
56162,CHECKMATE 8,2023,103.99,150.0,+,81.0,Active,1,LEO,USA,USA,Military,Technology Development,Falcon,1 56162U 23050A   24131.58396192  .00000287  00000+0  24543-3 0  9991,2 56162  81.0011  87.8137 0005374 221.6581 138.4166 13.84698556 55904,13.84698556,0.0005374,LEO
56163,CHECKMATE 5,2023,103.99,150.0,+,81.0,Active,1,LEO,USA,USA,Military,Technology Development,Falcon,1 56163U 23050B   24131.56874934  .00000250  00000+0  21218-3 0  9991,2 56163  81.0000  87.7458 0005596 220.0699 140.0045 13.84740939 55916,13.84740939,0.0005596,LEO
56164,CHECKMATE 4,2023,104.0,150.0,+,81.0,Active,1,LEO,USA,USA,Military,Technology Development,Falcon,1 56164U 23050C   24131.58611876  .00000115  00000+0  92678-4 0  9997,2 56164  81.0007  87.7831 0004252 235.3628 124.7128 13.84620109 55904,13.84620109,0.0004252,LEO
56165,CHECKMATE 6,2023,103.99,150.0,+,81.0,Active,1,LEO,USA,USA,Military,Technology Development,Falcon,1 56165U 23050D   24131.40904056  .00000095  00000+0  75039-4 0  9993,2 56165  81.0037  88.0181 0005167 217.5606 142.5189 13.84773006 55825,13.84773006,0.0005167,LEO
56166,CHECKMATE 7,2023,103.98,150.0,+,81.0,Active,1,LEO,USA,USA,Military,Technology Development,Falcon,1 56166U 23050E   24131.60602194  .00000159  00000+0  13117-3 0  9993,2 56166  80.9997  87.6148 0005392 214.9931 145.0871 13.84841654 55853,13.84841654,0.0005392,LEO
56167,CHECKMATE 2,2023,103.98,150.0,+,81.0,Active,1,LEO,USA,USA,Military,Technology Development,Falcon,1 56167U 23050F   24131.38146686  .00000265  00000+0  22544-3 0  9990,2 56167  81.0036  87.9783 0006099 216.3454 143.7288 13.84886552 55829,13.84886552,0.0006099,LEO
56168,CHECKMATE 1,2023,103.99,150.0,+,81.0,Active,1,LEO,USA,USA,Military,Technology Development,Falcon,1 56168U 23050G   24131.33684944  .00000122  00000+0  99037-4 0  9994,2 56168  81.0035  88.0804 0009731 255.0058 105.0021 13.84744165 55819,13.84744165,0.0009731,LEO
56169,CHECKMATE 3,2023,103.97,150.0,+,81.0,Active,1,LEO,USA,USA,Military,Technology Development,Falcon,1 56169U 23050H   24131.57309104  .00000159  00000+0  13128-3 0  9999,2 56169  81.0021  87.6746 0005725 210.0288 150.0541 13.84957989 55851,13.84957989,0.0005725,LEO
56170,BB 2,2023,104.4,300.0,+,81.0,Active,1,LEO,USA,USA,Military,Technology Development,Falcon,1 56170U 23050J   24131.55118679  .00000308  00000+0  28906-3 0  9990,2 56170  81.0013  91.0117 0009149 183.0435 177.0664 13.79362258 55647,13.79362258,0.0009149,LEO
56171,BB 1,2023,104.4,300.0,+,81.0,Active,1,LEO,USA,USA,Military,Technology Development,Falcon,1 56171U 23050K   24131.41026860  .00000287  00000+0  26914-3 0  9999,2 56171  81.0012  90.9860 0014466 190.5105 169.5748 13.79351654 55631,13.79351654,0.0014466,LEO
56174,INTELSAT 40E (IS-40E),2023,1436.1,6013.0,+,0.01,Active,1,GSO,USA,INTELSAT,Commercial,Communications,Falcon,1 56174U 23052A   24130.84971480 -.00000176  00000+0  00000+0 0  9999,2 56174   0.0064 250.3416 0000790 200.7988 351.8978  1.00271369  4112,1.00271369,7.9e-05,GEO
56178,IMECE,2023,98.22,800.0,+,98.18,Active,1,LEO,USA,Turkey,Civil,Earth Observation,Falcon,1 56178U 23054A   24131.58689468  .00000101  00000+0  27202-4 0  9994,2 56178  98.1776  31.5080 0009298  64.8276 295.3891 14.66142542 57953,14.66142542,0.0009298,LEO
